{"type": "FeatureCollection", "features": [ {"type": "Feature", "properties": {"norad_id": 43565, "name": "GSAT0222 (GALILEO 26)", "group": "gnss", "lat": -56.9560861432513, "lon": -95.14946132968313, "alt_km": 23210.15450994957, "timestamp": "2025-12-12T14:39:18.185703+00:00", "meta": {"OBJECT_NAME": "GSAT0222 (GALILEO 26)", "OBJECT_ID": "2018-060B", "EPOCH": "2025-12-11T13:50:46.646592", "MEAN_MOTION": 1.70475594, "ECCENTRICITY": 0.00061469, "INCLINATION": 57.2316, "RA_OF_ASC_NODE": 346.8519, "ARG_OF_PERICENTER": 263.5274, "MEAN_ANOMALY": 96.42, "EPHEMERIS_TYPE": 0, "CLASSIFICATION_TYPE": "U", "NORAD_CAT_ID": 43565, "ELEMENT_SET_NO": 999, "REV_AT_EPOCH": 4601, "BSTAR": 0, "MEAN_MOTION_DOT": -8.7e-07, "MEAN_MOTION_DDOT": 0}, "tle": {"line1": "1 43565U 18060B   25345.57692878 -.00000087  00000+0  00000+0 0  9993", "line2": "2 43565  57.2316 346.8519 0006146 263.5274  96.4200  1.70475594 46015"}}, "geometry": {"type": "Point", "coordinates": [-95.14946132968313, -56.9560861432513]}}, {"type": "Feature", "properties": {"norad_id": 43566, "name": "GSAT0219 (GALILEO 23)", "group": "gnss", "lat": 33.76145635577883, "lon": 141.3199971673926, "alt_km": 23232.36839880894, "timestamp": "2025-12-12T14:39:18.185719+00:00", "meta": {"OBJECT_NAME": "GSAT0219 (GALILEO 23)", "OBJECT_ID": "2018-060C", "EPOCH": "2025-12-07T16:36:27.181728", "MEAN_MOTION": 1.7047564, "ECCENTRICITY": 0.00057893, "INCLINATION": 57.2316, "RA_OF_ASC_NODE": 346.9585, "ARG_OF_PERICENTER": 285.9629, "MEAN_ANOMALY": 73.992, "EPHEMERIS_TYPE": 0, "CLASSIFICATION_TYPE": "U", "NORAD_CAT_ID": 43566, "ELEMENT_SET_NO": 999, "REV_AT_EPOCH": 4592, "BSTAR": 0, "MEAN_MOTION_DOT": -8.4e-07, "MEAN_MOTION_DDOT": 0}, "tle": {"line1": "1 43566U 18060C   25341.69198127 -.00000084  00000+0  00000+0 0  9998", "line2": "2 43566  57.2316 346.9585 0005789 285.9629  73.9920  1.70475640 45924"}}, "geometry": {"type": "Point", "coordinates": [141.3199971673926, 33.76145635577883]}}, {"type": "Feature", "properties": {"norad_id": 43567, "name": "GSAT0220 (GALILEO 24)", "group": "gnss", "lat": 2.5971278632252077, "lon": -11.501213761772366, "alt_km": 23218.53285305423, "timestamp": "2025-12-12T14:39:18.185731+00:00", "meta": {"OBJECT_NAME": "GSAT0220 (GALILEO 24)", "OBJECT_ID": "2018-060D", "EPOCH": "2025-12-10T20:18:00.212256", "MEAN_MOTION": 1.70475727, "ECCENTRICITY": 0.0006125, "INCLINATION": 57.2305, "RA_OF_ASC_NODE": 346.8727, "ARG_OF_PERICENTER": 283.9956, "MEAN_ANOMALY": 75.9532, "EPHEMERIS_TYPE": 0, "CLASSIFICATION_TYPE": "U", "NORAD_CAT_ID": 43567, "ELEMENT_SET_NO": 999, "REV_AT_EPOCH": 4596, "BSTAR": 0, "MEAN_MOTION_DOT": -8.7e-07, "MEAN_MOTION_DDOT": 0}, "tle": {"line1": "1 43567U 18060D   25344.84583579 -.00000087  00000+0  00000+0 0  9991", "line2": "2 43567  57.2305 346.8727 0006125 283.9956  75.9532  1.70475727 45967"}}, "geometry": {"type": "Point", "coordinates": [-11.501213761772366, 2.5971278632252077]}}, {"type": "Feature", "properties": {"norad_id": 43581, "name": "BEIDOU-3 M5 (C23)", "group": "gnss", "lat": -46.75513574552562, "lon": 59.05616118157923, "alt_km": 21535.38957566732, "timestamp": "2025-12-12T14:39:18.185741+00:00", "meta": {"OBJECT_NAME": "BEIDOU-3 M5 (C23)", "OBJECT_ID": "2018-062A", "EPOCH": "2025-12-11T17:01:48.232128", "MEAN_MOTION": 1.86228797, "ECCENTRICITY": 0.0002116, "INCLINATION": 54.089, "RA_OF_ASC_NODE": 188.6781, "ARG_OF_PERICENTER": 352.1454, "MEAN_ANOMALY": 7.9101, "EPHEMERIS_TYPE": 0, "CLASSIFICATION_TYPE": "U", "NORAD_CAT_ID": 43581, "ELEMENT_SET_NO": 999, "REV_AT_EPOCH": 5014, "BSTAR": 0, "MEAN_MOTION_DOT": 7.1e-07, "MEAN_MOTION_DDOT": 0}, "tle": {"line1": "1 43581U 18062A   25345.70958602  .00000071  00000+0  00000+0 0  9990", "line2": "2 43581  54.0890 188.6781 0002116 352.1454   7.9101  1.86228797 50140"}}, "geometry": {"type": "Point", "coordinates": [59.05616118157923, -46.75513574552562]}}, {"type": "Feature", "properties": {"norad_id": 43582, "name": "BEIDOU-3 M6 (C24)", "group": "gnss", "lat": -19.323563518969422, "lon": 173.92034283061778, "alt_km": 21523.761237478542, "timestamp": "2025-12-12T14:39:18.185751+00:00", "meta": {"OBJECT_NAME": "BEIDOU-3 M6 (C24)", "OBJECT_ID": "2018-062B", "EPOCH": "2025-12-11T13:44:38.713920", "MEAN_MOTION": 1.86229866, "ECCENTRICITY": 0.0007837, "INCLINATION": 54.0887, "RA_OF_ASC_NODE": 188.6718, "ARG_OF_PERICENTER": 47.121, "MEAN_ANOMALY": 313.0034, "EPHEMERIS_TYPE": 0, "CLASSIFICATION_TYPE": "U", "NORAD_CAT_ID": 43582, "ELEMENT_SET_NO": 999, "REV_AT_EPOCH": 5014, "BSTAR": 0, "MEAN_MOTION_DOT": 6.9e-07, "MEAN_MOTION_DDOT": 0}, "tle": {"line1": "1 43582U 18062B   25345.57267030  .00000069  00000+0  00000+0 0  9991", "line2": "2 43582  54.0887 188.6718 0007837  47.1210 313.0034  1.86229866 50147"}}, "geometry": {"type": "Point", "coordinates": [173.92034283061778, -19.323563518969422]}}, {"type": "Feature", "properties": {"norad_id": 43602, "name": "BEIDOU-3 M12 (C26)", "group": "gnss", "lat": 14.19452288133746, "lon": -162.10065082286283, "alt_km": 21503.31430729467, "timestamp": "2025-12-12T14:39:18.185762+00:00", "meta": {"OBJECT_NAME": "BEIDOU-3 M12 (C26)", "OBJECT_ID": "2018-067A", "EPOCH": "2025-12-11T12:15:06.004224", "MEAN_MOTION": 1.86227612, "ECCENTRICITY": 0.00091491, "INCLINATION": 54.1831, "RA_OF_ASC_NODE": 187.4051, "ARG_OF_PERICENTER": 41.0073, "MEAN_ANOMALY": 319.1184, "EPHEMERIS_TYPE": 0, "CLASSIFICATION_TYPE": "U", "NORAD_CAT_ID": 43602, "ELEMENT_SET_NO": 999, "REV_AT_EPOCH": 4962, "BSTAR": 0, "MEAN_MOTION_DOT": 7.1e-07, "MEAN_MOTION_DDOT": 0}, "tle": {"line1": "1 43602U 18067A   25345.51048616  .00000071  00000+0  00000+0 0  9993", "line2": "2 43602  54.1831 187.4051 0009149  41.0073 319.1184  1.86227612 49626"}}, "geometry": {"type": "Point", "coordinates": [-162.10065082286283, 14.19452288133746]}}, {"type": "Feature", "properties": {"norad_id": 43603, "name": "BEIDOU-3 M11 (C25)", "group": "gnss", "lat": -50.67618429933122, "lon": 125.48359053220884, "alt_km": 21539.1842587287, "timestamp": "2025-12-12T14:39:18.185772+00:00", "meta": {"OBJECT_NAME": "BEIDOU-3 M11 (C25)", "OBJECT_ID": "2018-067B", "EPOCH": "2025-12-11T15:28:47.340768", "MEAN_MOTION": 1.86227129, "ECCENTRICITY": 0.0005575, "INCLINATION": 54.1804, "RA_OF_ASC_NODE": 187.3644, "ARG_OF_PERICENTER": 36.7806, "MEAN_ANOMALY": 323.3147, "EPHEMERIS_TYPE": 0, "CLASSIFICATION_TYPE": "U", "NORAD_CAT_ID": 43603, "ELEMENT_SET_NO": 999, "REV_AT_EPOCH": 4965, "BSTAR": 0, "MEAN_MOTION_DOT": 7.3e-07, "MEAN_MOTION_DDOT": 0}, "tle": {"line1": "1 43603U 18067B   25345.64499237  .00000073  00000+0  00000+0 0  9999", "line2": "2 43603  54.1804 187.3644 0005575  36.7806 323.3147  1.86227129 49650"}}, "geometry": {"type": "Point", "coordinates": [125.48359053220884, -50.67618429933122]}}, {"type": "Feature", "properties": {"norad_id": 43622, "name": "BEIDOU-3 M13 (C32)", "group": "gnss", "lat": -34.9992212591226, "lon": 41.19685391755096, "alt_km": 21517.373544899932, "timestamp": "2025-12-12T14:39:18.185784+00:00", "meta": {"OBJECT_NAME": "BEIDOU-3 M13 (C32)", "OBJECT_ID": "2018-072A", "EPOCH": "2025-12-09T23:46:31.895616", "MEAN_MOTION": 1.8623066, "ECCENTRICITY": 0.00056577, "INCLINATION": 56.4568, "RA_OF_ASC_NODE": 68.9118, "ARG_OF_PERICENTER": 299.2639, "MEAN_ANOMALY": 60.7025, "EPHEMERIS_TYPE": 0, "CLASSIFICATION_TYPE": "U", "NORAD_CAT_ID": 43622, "ELEMENT_SET_NO": 999, "REV_AT_EPOCH": 4913, "BSTAR": 0, "MEAN_MOTION_DOT": -5.2e-07, "MEAN_MOTION_DDOT": 0}, "tle": {"line1": "1 43622U 18072A   25343.99064694 -.00000052  00000+0  00000+0 0  9995", "line2": "2 43622  56.4568  68.9118 0005657 299.2639  60.7025  1.86230660 49138"}}, "geometry": {"type": "Point", "coordinates": [41.19685391755096, -34.9992212591226]}}, {"type": "Feature", "properties": {"norad_id": 43623, "name": "BEIDOU-3 M14 (C33)", "group": "gnss", "lat": 37.414263457693046, "lon": 99.27053028562831, "alt_km": 21520.63890652393, "timestamp": "2025-12-12T14:39:18.185794+00:00", "meta": {"OBJECT_NAME": "BEIDOU-3 M14 (C33)", "OBJECT_ID": "2018-072B", "EPOCH": "2025-12-09T20:32:48.183072", "MEAN_MOTION": 1.86230666, "ECCENTRICITY": 0.00032297, "INCLINATION": 56.4585, "RA_OF_ASC_NODE": 68.9098, "ARG_OF_PERICENTER": 335.6302, "MEAN_ANOMALY": 24.3775, "EPHEMERIS_TYPE": 0, "CLASSIFICATION_TYPE": "U", "NORAD_CAT_ID": 43623, "ELEMENT_SET_NO": 999, "REV_AT_EPOCH": 4912, "BSTAR": 0, "MEAN_MOTION_DOT": -5.1e-07, "MEAN_MOTION_DDOT": 0}, "tle": {"line1": "1 43623U 18072B   25343.85611323 -.00000051  00000+0  00000+0 0  9997", "line2": "2 43623  56.4585  68.9098 0003229 335.6302  24.3775  1.86230666 49123"}}, "geometry": {"type": "Point", "coordinates": [99.27053028562831, 37.414263457693046]}}, {"type": "Feature", "properties": {"norad_id": 43647, "name": "BEIDOU-3 M16 (C35)", "group": "gnss", "lat": -44.14488360575791, "lon": -97.79010839674663, "alt_km": 21528.92749462752, "timestamp": "2025-12-12T14:39:18.185803+00:00", "meta": {"OBJECT_NAME": "BEIDOU-3 M16 (C35)", "OBJECT_ID": "2018-078A", "EPOCH": "2025-12-12T03:52:56.248896", "MEAN_MOTION": 1.86232291, "ECCENTRICITY": 0.00071745, "INCLINATION": 54.2625, "RA_OF_ASC_NODE": 306.5413, "ARG_OF_PERICENTER": 19.216, "MEAN_ANOMALY": 340.802, "EPHEMERIS_TYPE": 0, "CLASSIFICATION_TYPE": "U", "NORAD_CAT_ID": 43647, "ELEMENT_SET_NO": 999, "REV_AT_EPOCH": 4867, "BSTAR": 0, "MEAN_MOTION_DOT": -9.2e-07, "MEAN_MOTION_DDOT": 0}, "tle": {"line1": "1 43647U 18078A   25346.16176214 -.00000092  00000+0  00000+0 0  9996", "line2": "2 43647  54.2625 306.5413 0007174  19.2160 340.8020  1.86232291 48676"}}, "geometry": {"type": "Point", "coordinates": [-97.79010839674663, -44.14488360575791]}}]}